NORAD_CAT_ID,OBJECT_NAME,OBJECT_TYPE,EPOCH,MEAN_MOTION,ECCENTRICITY,INCLINATION,RA_OF_ASC_NODE,ARG_OF_PERICENTER,MEAN_ANOMALY,BSTAR,MEAN_MOTION_DOT,MEAN_MOTION_DDOT,TLE_LINE0,TLE_LINE1,TLE_LINE2,SEMIMAJOR_AXIS,PERIOD,APOGEE,PERIGEE,DECAYED
52665.0,STARLINK-4064,PAYLOAD,2024-05-11 18:09:41,15.08811688,0.0002565,53.2174,268.0989,72.3782,287.749,-0.0013778,-0.00022133,0.0,0 STARLINK-4064,1 52665U 22053K   24132.75672615 -.00022133  00000-0 -13778-2 0  9998,2 52665  53.2174 268.0989 0002565  72.3782 287.7490 15.08811688110361,6917.967,95.439,541.606,538.057,0.0
52665.0,STARLINK-4064,PAYLOAD,2024-05-12 02:06:38,15.08750721,0.0001297,53.2173,266.6117,96.5576,263.5563,-0.0016489,-0.0002637,0.0,0 STARLINK-4064,1 52665U 22053K   24133.08794599 -.00026370  00000-0 -16489-2 0  9990,2 52665  53.2173 266.6117 0001297  96.5576 263.5563 15.08750721110416,6918.153,95.443,540.916,539.121,0.0
52665.0,STARLINK-4064,PAYLOAD,2024-05-12 13:14:23,15.08759776,0.0001969,53.2166,264.5335,78.772,281.3493,0.0014807,0.00023304,0.0,0 STARLINK-4064,1 52665U 22053K   24133.55165934  .00023304  00000-0  14807-2 0  9991,2 52665  53.2166 264.5335 0001969  78.7720 281.3493 15.08759776110482,6918.126,95.443,541.353,538.628,0.0
52665.0,STARLINK-4064,PAYLOAD,2024-05-12 14:49:46,15.08771719,0.0001448,53.2161,264.2334,112.5941,247.5204,0.0024324,0.00038563,0.0,0 STARLINK-4064,1 52665U 22053K   24133.61789898  .00038563  00000-0  24324-2 0  9997,2 52665  53.2161 264.2334 0001448 112.5941 247.5204 15.08771719110493,6918.089,95.442,540.956,538.952,0.0
52665.0,STARLINK-4064,PAYLOAD,2024-05-12 16:25:09,15.08816263,0.0001427,53.2164,263.937,89.2084,270.9071,0.0027362,0.00043499,0.0,0 STARLINK-4064,1 52665U 22053K   24133.68413747  .00043499  00000-0  27362-2 0  9990,2 52665  53.2164 263.9370 0001427  89.2084 270.9071 15.08816263110505,6917.953,95.439,540.805,538.831,0.0
52665.0,STARLINK-4064,PAYLOAD,2024-05-13 01:57:28,15.08839545,0.0001441,53.2168,262.1519,92.5466,267.5691,0.0019528,0.00030927,0.0,0 STARLINK-4064,1 52665U 22053K   24134.08157849  .00030927  00000-0  19528-2 0  9990,2 52665  53.2168 262.1519 0001441  92.5466 267.5691 15.08839545110566,6917.882,95.438,540.744,538.75,0.0
52665.0,STARLINK-4064,PAYLOAD,2024-05-13 14:40:32,15.08879534,0.0001407,53.2165,259.7731,89.4074,270.7079,0.0015606,0.00024663,0.0,0 STARLINK-4064,1 52665U 22053K   24134.61148709  .00024663  00000-0  15606-2 0  9997,2 52665  53.2165 259.7731 0001407  89.4074 270.7079 15.08879534110640,6917.76,95.435,540.598,538.651,0.0
52665.0,STARLINK-4064,PAYLOAD,2024-05-13 17:51:18,15.08886348,0.0001432,53.2164,259.1782,89.3505,270.7651,0.0015476,0.00024459,0.0,0 STARLINK-4064,1 52665U 22053K   24134.74396309  .00024459  00000-0  15476-2 0  9990,2 52665  53.2164 259.1782 0001432  89.3505 270.7651 15.08886348110664,6917.739,95.435,540.594,538.613,0.0
52665.0,STARLINK-4064,PAYLOAD,2024-05-14 14:31:18,15.08876095,0.0002935,53.217,255.3117,95.3209,264.8118,0.0013825,0.00021806,0.0,0 STARLINK-4064,1 52665U 22053K   24135.60507614  .00021806  00000-0  13825-2 0  9998,2 52665  53.2170 255.3117 0002935  95.3209 264.8118 15.08876095110792,6917.77,95.435,541.665,537.605,0.0
52665.0,STARLINK-4064,PAYLOAD,2024-05-15 12:46:42,15.0884435,0.0001662,53.2165,251.1446,92.0042,268.1141,0.00040724,6.2e-05,0.0,0 STARLINK-4064,1 52665U 22053K   24136.53243578  .00006200  00000-0  40724-3 0  9997,2 52665  53.2165 251.1446 0001662  92.0042 268.1141 15.08844350110938,6917.867,95.437,540.882,538.582,0.0
52665.0,STARLINK-4064,PAYLOAD,2024-05-16 12:37:29,15.08841175,0.000181,53.2165,246.6839,95.4565,264.6633,0.00011923,1.61e-05,0.0,0 STARLINK-4064,1 52665U 22053K   24137.52603686  .00001610  00000-0  11923-3 0  9996,2 52665  53.2165 246.6839 0001810  95.4565 264.6633 15.08841175111081,6917.877,95.437,540.994,538.49,0.0
52665.0,STARLINK-4064,PAYLOAD,2024-05-16 14:12:53,15.08845653,0.0001366,53.2167,246.3917,77.181,282.9335,0.00022426,3.284e-05,0.0,0 STARLINK-4064,1 52665U 22053K   24137.59228065  .00003284  00000-0  22426-3 0  9996,2 52665  53.2167 246.3917 0001366  77.1810 282.9335 15.08845653111091,6917.863,95.437,540.673,538.783,0.0
52665.0,STARLINK-4064,PAYLOAD,2024-05-16 23:45:10,15.08864253,0.0001816,53.2175,244.6048,81.9594,278.1604,0.00038457,5.842e-05,0.0,0 STARLINK-4064,1 52665U 22053K   24137.98970183  .00005842  00000-0  38457-3 0  9997,2 52665  53.2175 244.6048 0001816  81.9594 278.1604 15.08864253111158,6917.806,95.436,540.928,538.415,0.0
52665.0,STARLINK-4064,PAYLOAD,2024-05-17 12:28:18,15.08806581,0.0001548,53.2166,242.2268,90.0995,270.0175,-0.00036981,-6.163e-05,0.0,0 STARLINK-4064,1 52665U 22053K   24138.51965433 -.00006163  00000-0 -36981-3 0  9998,2 52665  53.2166 242.2268 0001548  90.0995 270.0175 15.08806581111237,6917.983,95.44,540.918,538.777,0.0
52665.0,STARLINK-4064,PAYLOAD,2024-05-17 14:03:40,15.0882266,0.0001351,53.2166,241.9282,75.7479,284.3663,-0.0001171,-2.15e-05,0.0,0 STARLINK-4064,1 52665U 22053K   24138.58588854 -.00002150  00000-0 -11710-3 0  9998,2 52665  53.2166 241.9282 0001351  75.7479 284.3663 15.08822660111245,6917.933,95.439,540.733,538.864,0.0
52665.0,STARLINK-4064,PAYLOAD,2024-05-17 23:35:59,15.08836539,0.0001523,53.217,240.1442,78.8977,281.2186,6.9972e-05,8.26e-06,0.0,0 STARLINK-4064,1 52665U 22053K   24138.98332327  .00000826  00000-0  69972-4 0  9994,2 52665  53.2170 240.1442 0001523  78.8977 281.2186 15.08836539111300,6917.891,95.438,540.81,538.702,0.0
52665.0,STARLINK-4064,PAYLOAD,2024-05-18 13:54:26,15.08862546,0.00013,53.2161,237.4656,86.4161,273.698,0.00059066,9.131e-05,0.0,0 STARLINK-4064,1 52665U 22053K   24139.57947251  .00009131  00000-0  59066-3 0  9998,2 52665  53.2161 237.4656 0001300  86.4161 273.6980 15.08862546111392,6917.811,95.436,540.576,538.777,0.0
52665.0,STARLINK-4064,PAYLOAD,2024-05-18 15:29:49,15.08864961,0.0001309,53.2161,237.1678,95.6878,264.4263,0.00061533,9.525e-05,0.0,0 STARLINK-4064,1 52665U 22053K   24139.64571040  .00009525  00000-0  61533-3 0  9994,2 52665  53.2161 237.1678 0001309  95.6878 264.4263 15.08864961111406,6917.804,95.436,540.575,538.764,0.0
52665.0,STARLINK-4064,PAYLOAD,2024-05-18 23:26:44,15.08883736,0.000176,53.2168,235.684,59.7104,300.4062,0.00080748,0.00012602,0.0,0 STARLINK-4064,1 52665U 22053K   24139.97689986  .00012602  00000-0  80748-3 0  9998,2 52665  53.2168 235.6840 0001760  59.7104 300.4062 15.08883736111455,6917.747,95.435,540.829,538.394,0.0
52665.0,STARLINK-4064,PAYLOAD,2024-05-19 13:45:13,15.08840086,0.000102,53.216,233.0084,75.5736,284.5369,9.6134e-06,-1.35e-06,0.0,0 STARLINK-4064,1 52665U 22053K   24140.57307627 -.00000135  00000-0  96134-5 0  9992,2 52665  53.2160 233.0084 0001020  75.5736 284.5369 15.08840086111548,6917.88,95.438,540.451,539.04,0.0
52665.0,STARLINK-4064,PAYLOAD,2024-05-19 15:20:36,15.08840619,0.0001062,53.2161,232.7108,73.49,286.6209,5.7366e-06,-1.96e-06,0.0,0 STARLINK-4064,1 52665U 22053K   24140.63931623 -.00000196  00000-0  57366-5 0  9999,2 52665  53.2161 232.7108 0001062  73.4900 286.6209 15.08840619111557,6917.878,95.438,540.478,539.009,0.0
52665.0,STARLINK-4064,PAYLOAD,2024-05-20 13:36:00,15.08842308,0.0001355,53.2168,228.5497,63.6144,296.4988,-5.3082e-06,-3.72e-06,0.0,0 STARLINK-4064,1 52665U 22053K   24141.56667760 -.00000372  00000-0 -53082-5 0  9998,2 52665  53.2168 228.5497 0001355  63.6144 296.4988 15.08842308111699,6917.873,95.437,540.676,538.801,0.0
52665.0,STARLINK-4064,PAYLOAD,2024-05-21 11:51:25,15.08833359,0.0001699,53.2175,224.388,54.8296,305.2855,0.00013739,1.899e-05,0.0,0 STARLINK-4064,1 52665U 22053K   24142.49404824  .00001899  00000-0  13739-3 0  9997,2 52665  53.2175 224.3880 0001699  54.8296 305.2855 15.08833359111832,6917.901,95.438,540.941,538.59,0.0
52665.0,STARLINK-4064,PAYLOAD,2024-05-22 11:42:12,15.08842576,0.0001316,53.2167,219.9272,69.0989,291.0144,0.00021991,3.214e-05,0.0,0 STARLINK-4064,1 52665U 22053K   24143.48764524  .00003214  00000-0  21991-3 0  9995,2 52665  53.2167 219.9272 0001316  69.0989 291.0144 15.08842576111981,6917.873,95.437,540.648,538.827,0.0
52665.0,STARLINK-4064,PAYLOAD,2024-05-23 11:32:59,15.08840791,0.0001295,53.2167,215.4669,87.8185,272.2956,0.00010186,1.334e-05,0.0,0 STARLINK-4064,1 52665U 22053K   24144.48124552  .00001334  00000-0  10186-3 0  9992,2 52665  53.2167 215.4669 0001295  87.8185 272.2956 15.08840791112131,6917.878,95.438,540.639,538.847,0.0
52665.0,STARLINK-4064,PAYLOAD,2024-05-24 11:23:46,15.08843303,0.0001351,53.2173,211.0064,96.0047,264.1099,9.5217e-05,1.228e-05,0.0,0 STARLINK-4064,1 52665U 22053K   24145.47484272  .00001228  00000-0  95217-4 0  9991,2 52665  53.2173 211.0064 0001351  96.0047 264.1099 15.08843303112287,6917.87,95.437,540.67,538.801,0.0
52665.0,STARLINK-4064,PAYLOAD,2024-05-25 03:17:37,15.0883897,0.0001443,53.2174,208.034,103.8051,256.3102,0.00010734,1.421e-05,0.0,0 STARLINK-4064,1 52665U 22053K   24146.13724403  .00001421  00000-0  10734-3 0  9993,2 52665  53.2174 208.0340 0001443 103.8051 256.3102 15.08838970112388,6917.884,95.438,540.747,538.75,0.0
52665.0,STARLINK-4064,PAYLOAD,2024-05-25 11:14:34,15.08828378,0.000129,53.2167,206.5437,77.2041,282.9095,-8.096e-06,-4.17e-06,0.0,0 STARLINK-4064,1 52665U 22053K   24146.46845584 -.00000417  00000-0 -80960-5 0  9999,2 52665  53.2167 206.5437 0001290  77.2041 282.9095 15.08828378112436,6917.916,95.438,540.673,538.889,0.0
52665.0,STARLINK-4064,PAYLOAD,2024-05-26 11:05:21,15.08839149,0.0001362,53.2167,202.0849,85.5867,274.5281,6.4404e-05,7.37e-06,0.0,0 STARLINK-4064,1 52665U 22053K   24147.46205040  .00000737  00000-0  64404-4 0  9994,2 52665  53.2167 202.0849 0001362  85.5867 274.5281 15.08839149112580,6917.883,95.438,540.69,538.806,0.0
52665.0,STARLINK-4064,PAYLOAD,2024-05-26 20:37:39,15.08838774,0.0001063,53.2166,200.295,88.4793,271.6321,6.6959e-06,-1.81e-06,0.0,0 STARLINK-4064,1 52665U 22053K   24147.85948847 -.00000181  00000-0  66959-5 0  9998,2 52665  53.2166 200.2950 0001063  88.4793 271.6321 15.08838774112643,6917.884,95.438,540.485,539.014,0.0
